MEAN_MOTION;ECCENTRICITY;INCLINATION;RA_OF_ASC_NODE;ARG_OF_PERICENTER;MEAN_ANOMALY;BSTAR;MEAN_MOTION_DOT;MEAN_MOTION_DDOT;TYPE
12.62265582;4.76E-5;52.002;256.4463;93.4641;61.1609;0.00011688;-8.3E-7;0;Globalstar
12.62265582;4.76E-5;52.002;256.4463;93.4641;61.1609;0.00011688;-8.3E-7;0;Globalstar
12.62265681;4.73E-5;52.0021;253.5414;94.7692;77.9352;0.00014485;-7.8E-7;0;Globalstar
12.6226569;4.73E-5;52.0021;253.3243;95.1481;41.7369;0.00014532;-7.8E-7;0;Globalstar
12.62265686;4.71E-5;52.0021;250.4447;95.2113;21.9022;8.8656E-5;-8.8E-7;0;Globalstar
12.62265703;4.67E-5;52.0021;248.567;95.8691;305.2933;5.4916E-5;-9.4E-7;0;Globalstar
12.62265697;4.68E-5;52.0022;247.2759;95.6997;73.6904;3.5729E-5;-9.7E-7;0;Globalstar
12.62265685;4.61E-5;52.0022;245.6795;96.4404;296.9806;-1.0941E-5;-1.06E-6;0;Globalstar
12.62265575;4.6E-5;52.0022;242.5403;96.2308;305.0296;-0.00011258;-1.24E-6;0;Globalstar
12.62265539;4.36E-5;52.0027;241.2512;96.8684;69.9272;-4.1099E-5;-1.11E-6;0;Globalstar
12.62265637;4.49E-5;52.0023;238.3657;98.0202;57.9315;-9.0073E-5;-1.2E-6;0;Globalstar
12.62265627;4.52E-5;52.0023;235.7499;96.4157;5.8226;-7.7182E-5;-1.18E-6;0;Globalstar
12.62265629;4.42E-5;52.0024;233.1137;97.1483;342.0288;-5.3677E-5;-1.13E-6;0;Globalstar
12.622657;4.19E-5;52.0025;229.4792;98.1064;8.9338;4.7026E-5;-9.5E-7;0;Globalstar
12.62265693;4.06E-5;52.0026;226.3375;98.2782;20.6619;7.1355E-5;-9.1E-7;0;Globalstar
12.62265689;4.04E-5;52.0026;226.0751;98.2161;52.5718;6.6194E-5;-9.2E-7;0;Globalstar
12.62265655;3.95E-5;52.0027;223.6965;99.2268;3.8644;5.8172E-5;-9.3E-7;0;Globalstar
12.62265659;3.83E-5;52.0028;221.0606;99.738;339.9335;4.9413E-5;-9.5E-7;0;Globalstar
12.62265617;3.57E-5;52.0033;218.1709;99.3037;336.7311;-7.9739E-5;-1.18E-6;0;Globalstar
12.62265612;3.58E-5;52.0033;217.6705;99.3689;4.0637;-8.8417E-5;-1.2E-6;0;Globalstar
12.62265639;3.41E-5;52.0034;215.0348;99.1009;340.5873;-4.421E-5;-1.12E-6;0;Globalstar
12.62265648;3.46E-5;52.0031;212.1442;97.9203;338.2878;-5.1572E-5;-1.13E-6;0;Globalstar
12.62265642;3.22E-5;52.0035;210.8849;97.8519;59.5141;-2.1817E-5;-1.08E-6;0;Globalstar
12.62265653;3.28E-5;52.0032;209.0081;98.1477;341.8854;-7.9704E-5;-1.18E-6;0;Globalstar
12.62265641;3.19E-5;52.0032;207.9973;97.4441;52.4074;-9.0156E-5;-1.2E-6;0;Globalstar
12.62265608;3.11E-5;52.0033;205.1122;96.6505;42.1748;-0.00010762;-1.23E-6;0;Globalstar
12.62265594;3.01E-5;52.0033;202.9826;96.5972;342.63;-0.00010872;-1.23E-6;0;Globalstar
12.62265558;2.88E-5;52.0033;200.0919;95.4873;341.0033;-9.8215E-5;-1.21E-6;0;Globalstar
12.6226566;2.58E-5;52.0037;196.9563;93.0822;346.4481;4.2973E-6;-1.03E-6;0;Globalstar
12.62265629;2.43E-5;52.0037;193.5646;91.0812;13.9826;-1.3939E-5;-1.06E-6;0;Globalstar
12.62265629;2.43E-5;52.0037;193.5646;91.0812;13.9826;-1.3939E-5;-1.06E-6;0;Globalstar
12.62265645;2.3E-5;52.0037;190.6719;88.6849;16.5819;-9.2743E-7;-1.04E-6;0;Globalstar
12.6226561;2.47E-5;52.0032;189.9193;88.5493;60.7045;0.00010258;-8.5E-7;0;Globalstar
12.62265661;2.33E-5;52.0032;185.6702;83.6835;291.7652;0.00014254;-7.8E-7;0;Globalstar
12.62265641;2.31E-5;52.0032;184.6468;84.2332;19.6216;0.00012128;-8.2E-7;0;Globalstar
12.62265637;2.26E-5;52.0032;182.5344;81.5253;297.2125;9.1803E-5;-8.7E-7;0;Globalstar
12.62265668;2.24E-5;52.0031;180.3457;77.8232;329.5224;7.8746E-5;-9.0E-7;0;Globalstar
12.62265654;2.1E-5;52.0033;178.6206;76.3282;27.1528;3.5502E-5;-9.7E-7;0;Globalstar
12.62265676;2.05E-5;52.0033;175.4849;71.5057;34.9485;4.7213E-5;-9.5E-7;0;Globalstar
12.62265672;2.01E-5;52.0032;172.5948;66.2673;36.4976;3.599E-5;-9.7E-7;0;Globalstar
12.6226569;2.01E-5;52.0031;170.462;62.0182;346.0411;4.8649E-5;-9.5E-7;0;Globalstar
12.62265689;2.15E-5;52.0026;168.7132;59.3511;81.16;-3.2729E-5;-1.1E-6;0;Globalstar
12.62265692;2.15E-5;52.0025;166.5697;57.0782;44.6534;-1.723E-5;-1.07E-6;0;Globalstar
12.62265689;2.19E-5;52.0025;165.8135;54.9118;96.185;-1.6329E-5;-1.07E-6;0;Globalstar
12.6226569;2.22E-5;52.0023;163.4325;51.9863;54.8958;1.4812E-5;-1.01E-6;0;Globalstar
12.62265695;2.32E-5;52.0022;160.3075;46.9289;46.896;5.7072E-5;-9.4E-7;0;Globalstar
12.62265705;2.33E-5;52.0022;160.0186;47.158;118.0446;6.89E-5;-9.1E-7;0;Globalstar
12.62265755;2.43E-5;52.0028;156.9;41.0703;101.3033;3.2352E-5;-9.8E-7;0;Globalstar
12.62265751;2.6E-5;52.0021;154.2451;39.5718;107.9064;0.00014154;-7.8E-7;0;Globalstar
12.62265719;2.71E-5;52.0021;152.4031;37.6639;340.7241;0.00010863;-8.4E-7;0;Globalstar
12.62265753;2.84E-5;52.002;150.8732;36.0784;107.1137;0.00012362;-8.2E-7;0;Globalstar
12.6226581;3.01E-5;52.002;148.2187;34.0649;113.5095;0.0001327;-8.0E-7;0;Globalstar
12.62265824;3.04E-5;52.002;147.7332;33.1859;119.4295;0.00013326;-8.0E-7;0;Globalstar
12.62265813;3.2E-5;52.0019;145.1067;32.3831;82.5087;7.8176E-5;-9.0E-7;0;Globalstar
12.62265822;3.23E-5;52.0019;144.8468;32.0193;111.03;7.7094E-5;-9.0E-7;0;Globalstar
12.62265842;3.37E-5;52.0019;142.2274;31.5283;63.4167;4.1146E-5;-9.6E-7;0;Globalstar
12.62265842;3.49E-5;52.0018;140.1007;31.221;359.736;-8.9851E-6;-1.05E-6;0;Globalstar
12.62265851;3.61E-5;52.0018;139.08;30.4847;84.7982;-5.5663E-6;-1.05E-6;0;Globalstar
12.62265829;3.72E-5;52.0017;136.9384;30.329;43.164;-6.0845E-5;-1.15E-6;0;Globalstar
12.62265861;3.78E-5;52.0017;136.2003;30.5815;65.2479;-2.8473E-5;-1.09E-6;0;Globalstar
12.62265857;3.89E-5;52.0017;133.7874;30.6845;68.5148;-4.7328E-5;-1.12E-6;0;Globalstar
12.62265864;3.99E-5;52.0016;133.0532;30.429;85.3104;-3.125E-5;-1.09E-6;0;Globalstar
12.62265897;4.2E-5;52.0016;129.9056;30.5349;105.5677;1.2379E-5;-1.02E-6;0;Globalstar
12.62265901;4.22E-5;52.0016;129.6512;30.428;125.6218;1.1922E-5;-1.02E-6;0;Globalstar
12.622659;4.46E-5;52.0016;126.7609;30.2613;121.9891;3.9707E-5;-9.7E-7;0;Globalstar
12.62265913;4.77E-5;52.0016;123.6258;30.2743;123.885;7.003E-5;-9.1E-7;0;Globalstar
12.62265918;5.0E-5;52.0018;120.7344;31.0693;121.0751;8.3207E-5;-8.9E-7;0;Globalstar
12.62265915;5.13E-5;52.0018;118.612;31.7395;49.8394;7.0964E-5;-9.1E-7;0;Globalstar
12.62265926;5.25E-5;52.0019;117.8519;31.866;104.9738;8.3075E-5;-8.9E-7;0;Globalstar
12.6226594;5.53E-5;52.002;114.7073;32.6996;120.0989;6.3008E-5;-9.2E-7;0;Globalstar
12.62265952;5.58E-5;52.0021;113.3385;32.9828;3.9882;5.246E-5;-9.4E-7;0;Globalstar
12.62265973;5.79E-5;52.0022;111.5715;33.8411;122.0162;3.97E-5;-9.7E-7;0;Globalstar
12.62265973;5.79E-5;52.0022;111.5715;33.8411;122.0162;3.97E-5;-9.7E-7;0;Globalstar
12.6226601;5.99E-5;52.0023;108.6809;34.7892;117.9764;1.93E-5;-1.0E-6;0;Globalstar
12.62266009;6.22E-5;52.0025;106.5583;35.6819;47.0027;-1.3753E-5;-1.06E-6;0;Globalstar
12.62266014;6.34E-5;52.0025;105.5446;36.2075;120.4082;-2.1662E-5;-1.08E-6;0;Globalstar
12.62266002;6.54E-5;52.0026;102.6553;37.3577;114.0779;-6.107E-5;-1.15E-6;0;Globalstar
12.62265994;6.84E-5;52.0028;99.518;38.6756;118.1154;-8.0481E-5;-1.18E-6;0;Globalstar
12.62265975;7.05E-5;52.003;96.6286;39.9049;111.8662;-8.4804E-5;-1.19E-6;0;Globalstar
12.62265961;7.28E-5;52.0032;94.2511;41.1437;61.2392;-6.9495E-5;-1.16E-6;0;Globalstar
12.62265964;7.49E-5;52.0034;91.1262;42.3301;46.9443;-3.7374E-5;-1.1E-6;0;Globalstar
12.62265929;7.83E-5;52.0037;87.4649;44.2504;112.8585;-2.7079E-5;-1.09E-6;0;Globalstar
12.62265946;7.98E-5;52.0039;84.5765;45.6653;105.1385;4.8831E-6;-1.03E-6;0;Globalstar
12.62265941;8.07E-5;52.0041;82.9742;46.5444;337.1781;-8.3042E-7;-1.04E-6;0;Globalstar
12.62265936;8.19E-5;52.0041;82.1979;46.9758;56.1777;6.4009E-6;-1.03E-6;0;Globalstar
12.62265934;8.27E-5;52.0042;81.4384;47.3018;110.2235;-2.2764E-6;-1.04E-6;0;Globalstar
12.62265925;8.46E-5;52.0044;78.5513;48.8612;100.6065;-1.4711E-5;-1.06E-6;0;Globalstar
12.62265914;8.55E-5;52.0045;76.948;49.7551;334.2345;-3.669E-5;-1.1E-6;0;Globalstar
12.62265907;8.71E-5;52.0047;75.4126;50.2723;106.9537;-4.9014E-5;-1.13E-6;0;Globalstar
12.62265911;8.92E-5;52.0049;72.525;51.9568;97.8365;-5.8938E-5;-1.14E-6;0;Globalstar
12.62265867;9.06E-5;52.005;70.1452;53.2408;50.9319;-9.667E-5;-1.21E-6;0;Globalstar
12.62265876;9.13E-5;52.005;69.3853;53.5003;105.5872;-9.7316E-5;-1.21E-6;0;Globalstar
12.6226588;9.28E-5;52.0052;67.0203;54.7645;36.564;-8.433E-5;-1.19E-6;0;Globalstar
12.62265854;9.44E-5;52.0053;64.6198;56.1327;20.2984;-9.9282E-5;-1.22E-6;0;Globalstar
12.62265853;9.52E-5;52.0053;63.8493;56.2652;90.9845;-8.4477E-5;-1.19E-6;0;Globalstar
12.62265881;9.59E-5;52.0057;60.4738;57.7979;91.1057;-3.7244E-5;-1.1E-6;0;Globalstar
12.62265824;9.81E-5;52.0055;58.5938;59.2889;17.0974;-5.7178E-5;-1.14E-6;0;Globalstar
12.62265844;9.8E-5;52.0059;57.3331;59.5114;100.0177;-5.436E-5;-1.14E-6;0;Globalstar
12.62265848;9.86E-5;52.0059;55.7338;60.4337;327.8257;-4.6661E-5;-1.12E-6;0;Globalstar
12.6226585;0.0001;52.006;52.8424;62.0162;324.5459;-3.8343E-5;-1.11E-6;0;Globalstar
12.62265842;0.0001004;52.006;52.5676;62.2473;14.7564;-4.2578E-5;-1.11E-6;0;Globalstar
12.62265811;0.0001025;52.0059;51.5807;62.6541;48.0324;9.7628E-6;-1.02E-6;0;Globalstar
12.62265867;0.0001019;52.0061;49.7075;63.3068;325.3426;-2.6728E-5;-1.09E-6;0;Globalstar
12.62265823;0.0001033;52.006;49.432;63.7405;16.1894;1.5863E-5;-1.01E-6;0;Globalstar
12.62265795;0.0001051;52.006;46.5417;65.3303;11.523;-1.3864E-6;-1.04E-6;0;Globalstar
12.62265833;0.0001044;52.0062;45.795;65.5255;46.5567;-2.2406E-5;-1.08E-6;0;Globalstar
12.62265828;0.0001069;52.0061;43.4064;67.3703;12.1733;1.399E-5;-1.01E-6;0;Globalstar
12.62265834;0.0001073;52.0061;42.6465;67.6182;66.9771;2.0248E-5;-1.0E-6;0;Globalstar
12.62265832;0.0001084;52.0061;40.5157;68.8225;8.2056;-6.6943E-7;-1.04E-6;0;Globalstar
12.62265828;0.000109;52.0061;39.5086;69.1516;72.1728;-2.1608E-6;-1.04E-6;0;Globalstar
12.62265828;0.0001083;52.0063;37.3805;70.238;9.1399;-5.1172E-6;-1.05E-6;0;Globalstar
12.62265829;0.000109;52.0063;36.369;70.7631;79.2362;-2.614E-7;-1.04E-6;0;Globalstar
12.62265812;0.0001113;52.0061;34.4901;72.0885;4.6391;-3.2572E-5;-1.1E-6;0;Globalstar
12.62265855;0.0001124;52.006;31.6226;73.8003;325.4943;-4.7899E-7;-1.04E-6;0;Globalstar
12.6226585;0.0001124;52.006;31.3689;73.9451;344.2781;1.4378E-6;-1.04E-6;0;Globalstar
12.62265821;0.0001134;52.0059;28.4638;75.2103;1.9503;-1.0997E-5;-1.06E-6;0;Globalstar
